"{\n    \"CCSDS_OMM_VERS\": \"2.0\",\n    \"COMMENT\": \"GENERATED VIA SPACE-TRACK.ORG API\",\n    \"CREATION_DATE\": \"2025-08-31T11:35:43\",\n    \"ORIGINATOR\": \"18 SPCS\",\n    \"OBJECT_NAME\": \"NAVSTAR 54 (USA 177)\",\n    \"OBJECT_ID\": \"2004-009A\",\n    \"CENTER_NAME\": \"EARTH\",\n    \"REF_FRAME\": \"TEME\",\n    \"TIME_SYSTEM\": \"UTC\",\n    \"MEAN_ELEMENT_THEORY\": \"SGP4\",\n    \"EPOCH\": \"2025-08-31T05:05:40.473600\",\n    \"MEAN_MOTION\": \"2.0056490338\",\n    \"ECCENTRICITY\": \"0.010735315\",\n    \"INCLINATION\": \"55.072819\",\n    \"RA_OF_ASC_NODE\": \"287.39096\",\n    \"ARG_OF_PERICENTER\": \"164.87343\",\n    \"MEAN_ANOMALY\": \"195.48954\",\n    \"EPHEMERIS_TYPE\": \"0\",\n    \"CLASSIFICATION_TYPE\": \"U\",\n    \"NORAD_CAT_ID\": \"28190\",\n    \"ELEMENT_SET_NO\": \"999\",\n    \"REV_AT_EPOCH\": \"15712\",\n    \"BSTAR\": \"0\",\n    \"MEAN_MOTION_DOT\": \"-0.000000048285\",\n    \"MEAN_MOTION_DDOT\": \"0\",\n    \"TLE_LINE0\": \"0 NAVSTAR 54 (USA 177)\",\n    \"TLE_LINE1\": \"1 28190U 04009A   25243.21227400 -.00000005  00000-0  00000-0 0  9993\",\n    \"TLE_LINE2\": \"2 28190  55.0728 287.3910 0107353 164.8734 195.4895  2.00564903157127\",\n    \"SEMIMAJOR_AXIS\": \"26560.233\",\n    \"PERIOD\": \"717.972\",\n    \"APOAPSIS\": \"20467.231\",\n    \"PERIAPSIS\": \"19896.966\",\n    \"OBJECT_TYPE\": \"PAYLOAD\",\n    \"DECAYED\": \"0\"\n}"